IRIDIUM 159             
1 43578U 18061K   24207.45136921  .00000355  00000+0  11984-3 0  9997
2 43578  86.4001 345.7871 0002009  98.5664 261.5760 14.34217823314237
IRIDIUM 180             
1 43922U 19002A   24207.24155989 -.00000564  00000+0 -20866-3 0  9991
2 43922  86.3965 282.7534 0002101  95.8879 264.2557 14.34215181289819
IRIDIUM 176             
1 43923U 19002B   24207.17975486  .00000079  00000+0  85868-5 0  9990
2 43923  86.6087 282.7975 0002241  96.0977 264.0495 14.72230610297436
IRIDIUM 168             
1 43924U 19002C   24206.74683034  .00000097  00000+0  27458-4 0  9998
2 43924  86.3960 283.0171 0002118  96.0284 264.1153 14.34216701289728
IRIDIUM 173             
1 43925U 19002D   24207.29230309  .00000330  00000+0  11084-3 0  9990
2 43925  86.3957 282.7060 0002164  95.8616 264.2826 14.34218027289782
IRIDIUM 169             
1 43926U 19002E   24207.24188460  .00000782  00000+0  24928-3 0  9998
2 43926  86.4245 314.3580 0004171 101.1345 259.0322 14.38607067290744
IRIDIUM 172             
1 43927U 19002F   24207.70457139 -.00000012  00000+0 -11313-4 0  9995
2 43927  86.3953 282.5391 0002194  93.0154 267.1293 14.34216430289859
IRIDIUM 175             
1 43928U 19002G   24207.71789191  .00001750  00000+0  27362-3 0  9991
2 43928  86.1483 253.5345 0002646  94.8952 265.2567 14.72246254297503
